ATLAS CENTAUR R/B       
1 06155U 72065B   25316.85624070  .00003146  00000+0  43528-3 0  9994
2 06155  35.0019 270.2358 0033072 107.9851 252.4458 14.77294745823979
SL-8 R/B                
1 08459U 75112B   25317.12730492  .00000712  00000+0  24315-3 0  9995
2 08459  74.0610 233.3222 0015759 348.8630  11.2173 14.38117750615118
SL-3 R/B                
1 10114U 77057B   25317.10878431  .00020329  00000+0  47801-3 0  9991
2 10114  97.5682 119.3072 0007479 353.7072   6.4080 15.41995899650349
SEASAT 1                
1 10967U 78064A   25317.07405192  .00001079  00000+0  34078-3 0  9995
2 10967 108.0065 240.8060 0002358 255.4613 104.6271 14.46011847489658
SL-14 R/B               
1 11267U 79011B   25317.13989517  .00001464  00000+0  14264-3 0  9990
2 11267  82.5261 207.1119 0017702  86.8698 273.4547 14.91718231511406
SL-8 R/B                
1 11574U 79089B   25317.14876465  .00000716  00000+0  22494-3 0  9997
2 11574  74.0679 306.7474 0015021 153.0738 207.1201 14.42253564419306
SL-14 R/B               
1 11672U 80005B   25316.74075206  .00001528  00000+0  15284-3 0  9996
2 11672  82.5158  58.1436 0015538 188.2789 171.8176 14.90733369459060
SL-8 R/B                
1 12139U 81003B   25317.17587317  .00038127  00000+0  10494-2 0  9995
2 12139  82.9337  37.3806 0282684 222.5965 135.3033 15.05510526297116
SL-3 R/B                
1 12465U 81046B   25317.11457278  .00023005  00000+0  59499-3 0  9998
2 12465  81.2330  69.3484 0020605  66.0937 294.2460 15.38734148420484
METEOR PRIRODA          
1 12585U 81065A   25317.13930882  .01120258  83731-3  96997-3 0  9990
2 12585  97.4653  21.8650 0004454 263.3601  96.7178 16.13488757426052
SL-3 R/B                
1 12904U 81103B   25317.16766436  .00014985  00000+0  69848-3 0  9990
2 12904  81.1610 349.9766 0012554 328.6727  31.3754 15.19711262955525
SL-3 R/B                
1 13068U 82013B   25317.10299630  .00011009  00000+0  49627-3 0  9991
2 13068  81.1730 297.2932 0022016 208.8330 151.1686 15.20704041386626
