CCSDS_OMM_VERS = 2.0
CREATION_DATE  = 
ORIGINATOR     = 

OBJECT_NAME    = ATLAS CENTAUR R/B
OBJECT_ID      = 1972-065B
CENTER_NAME    = EARTH
REF_FRAME      = TEME
TIME_SYSTEM    = UTC
MEAN_ELEMENT_THEORY = SGP/SGP4

EPOCH          = 2025-11-12T20:32:59.196480
MEAN_MOTION    = 14.77294745
ECCENTRICITY   = .00330727
INCLINATION    = 35.0019
RA_OF_ASC_NODE = 270.2358
ARG_OF_PERICENTER = 107.9851
MEAN_ANOMALY   = 252.4458

EPHEMERIS_TYPE = 0
CLASSIFICATION_TYPE = U
NORAD_CAT_ID   = 6155
ELEMENT_SET_NO = 999
REV_AT_EPOCH   = 82397
BSTAR          = .43527987E-3
MEAN_MOTION_DOT = .3146E-4
MEAN_MOTION_DDOT = 0

CCSDS_OMM_VERS = 2.0
CREATION_DATE  = 
ORIGINATOR     = 

OBJECT_NAME    = SL-8 R/B
OBJECT_ID      = 1975-112B
CENTER_NAME    = EARTH
REF_FRAME      = TEME
TIME_SYSTEM    = UTC
MEAN_ELEMENT_THEORY = SGP/SGP4

EPOCH          = 2025-11-13T03:03:19.145088
MEAN_MOTION    = 14.38117750
ECCENTRICITY   = .0015759
INCLINATION    = 74.0610
RA_OF_ASC_NODE = 233.3222
ARG_OF_PERICENTER = 348.8630
MEAN_ANOMALY   = 11.2173

EPHEMERIS_TYPE = 0
CLASSIFICATION_TYPE = U
NORAD_CAT_ID   = 8459
ELEMENT_SET_NO = 999
REV_AT_EPOCH   = 61511
BSTAR          = .24315E-3
MEAN_MOTION_DOT = .712E-5
MEAN_MOTION_DDOT = 0

CCSDS_OMM_VERS = 2.0
CREATION_DATE  = 
ORIGINATOR     = 

OBJECT_NAME    = SL-3 R/B
OBJECT_ID      = 1977-057B
CENTER_NAME    = EARTH
REF_FRAME      = TEME
TIME_SYSTEM    = UTC
MEAN_ELEMENT_THEORY = SGP/SGP4

EPOCH          = 2025-11-13T02:36:38.964384
MEAN_MOTION    = 15.41995899
ECCENTRICITY   = .0007479
INCLINATION    = 97.5682
RA_OF_ASC_NODE = 119.3072
ARG_OF_PERICENTER = 353.7072
MEAN_ANOMALY   = 6.4080

EPHEMERIS_TYPE = 0
CLASSIFICATION_TYPE = U
NORAD_CAT_ID   = 10114
ELEMENT_SET_NO = 999
REV_AT_EPOCH   = 65034
BSTAR          = .47801E-3
MEAN_MOTION_DOT = .20329E-3
MEAN_MOTION_DDOT = 0

CCSDS_OMM_VERS = 2.0
CREATION_DATE  = 
ORIGINATOR     = 

OBJECT_NAME    = SEASAT 1
OBJECT_ID      = 1978-064A
CENTER_NAME    = EARTH
REF_FRAME      = TEME
TIME_SYSTEM    = UTC
MEAN_ELEMENT_THEORY = SGP/SGP4

EPOCH          = 2025-11-13T01:46:38.085888
MEAN_MOTION    = 14.46011847
ECCENTRICITY   = .0002358
INCLINATION    = 108.0065
RA_OF_ASC_NODE = 240.8060
ARG_OF_PERICENTER = 255.4613
MEAN_ANOMALY   = 104.6271

EPHEMERIS_TYPE = 0
CLASSIFICATION_TYPE = U
NORAD_CAT_ID   = 10967
ELEMENT_SET_NO = 999
REV_AT_EPOCH   = 48965
BSTAR          = .34078E-3
MEAN_MOTION_DOT = .1079E-4
MEAN_MOTION_DDOT = 0

CCSDS_OMM_VERS = 2.0
CREATION_DATE  = 
ORIGINATOR     = 

OBJECT_NAME    = SL-14 R/B
OBJECT_ID      = 1979-011B
CENTER_NAME    = EARTH
REF_FRAME      = TEME
TIME_SYSTEM    = UTC
MEAN_ELEMENT_THEORY = SGP/SGP4

EPOCH          = 2025-11-13T03:21:26.942688
MEAN_MOTION    = 14.91718231
ECCENTRICITY   = .0017702
INCLINATION    = 82.5261
RA_OF_ASC_NODE = 207.1119
ARG_OF_PERICENTER = 86.8698
MEAN_ANOMALY   = 273.4547

EPHEMERIS_TYPE = 0
CLASSIFICATION_TYPE = U
NORAD_CAT_ID   = 11267
ELEMENT_SET_NO = 999
REV_AT_EPOCH   = 51140
BSTAR          = .14264E-3
MEAN_MOTION_DOT = .1464E-4
MEAN_MOTION_DDOT = 0

CCSDS_OMM_VERS = 2.0
CREATION_DATE  = 
ORIGINATOR     = 

OBJECT_NAME    = SL-8 R/B
OBJECT_ID      = 1979-089B
CENTER_NAME    = EARTH
REF_FRAME      = TEME
TIME_SYSTEM    = UTC
MEAN_ELEMENT_THEORY = SGP/SGP4

EPOCH          = 2025-11-13T03:34:13.265760
MEAN_MOTION    = 14.42253564
ECCENTRICITY   = .0015021
INCLINATION    = 74.0679
RA_OF_ASC_NODE = 306.7474
ARG_OF_PERICENTER = 153.0738
MEAN_ANOMALY   = 207.1201

EPHEMERIS_TYPE = 0
CLASSIFICATION_TYPE = U
NORAD_CAT_ID   = 11574
ELEMENT_SET_NO = 999
REV_AT_EPOCH   = 41930
BSTAR          = .22494E-3
MEAN_MOTION_DOT = .716E-5
MEAN_MOTION_DDOT = 0

CCSDS_OMM_VERS = 2.0
CREATION_DATE  = 
ORIGINATOR     = 

OBJECT_NAME    = SL-14 R/B
OBJECT_ID      = 1980-005B
CENTER_NAME    = EARTH
REF_FRAME      = TEME
TIME_SYSTEM    = UTC
MEAN_ELEMENT_THEORY = SGP/SGP4

EPOCH          = 2025-11-12T17:46:40.977984
MEAN_MOTION    = 14.90733369
ECCENTRICITY   = .00155381
INCLINATION    = 82.5158
RA_OF_ASC_NODE = 58.1436
ARG_OF_PERICENTER = 188.2789
MEAN_ANOMALY   = 171.8176

EPHEMERIS_TYPE = 0
CLASSIFICATION_TYPE = U
NORAD_CAT_ID   = 11672
ELEMENT_SET_NO = 999
REV_AT_EPOCH   = 45906
BSTAR          = .15284431E-3
MEAN_MOTION_DOT = .1528E-4
MEAN_MOTION_DDOT = 0

CCSDS_OMM_VERS = 2.0
CREATION_DATE  = 
ORIGINATOR     = 

OBJECT_NAME    = SL-8 R/B
OBJECT_ID      = 1981-003B
CENTER_NAME    = EARTH
REF_FRAME      = TEME
TIME_SYSTEM    = UTC
MEAN_ELEMENT_THEORY = SGP/SGP4

EPOCH          = 2025-11-13T04:13:15.441888
MEAN_MOTION    = 15.05510526
ECCENTRICITY   = .0282684
INCLINATION    = 82.9337
RA_OF_ASC_NODE = 37.3806
ARG_OF_PERICENTER = 222.5965
MEAN_ANOMALY   = 135.3033

EPHEMERIS_TYPE = 0
CLASSIFICATION_TYPE = U
NORAD_CAT_ID   = 12139
ELEMENT_SET_NO = 999
REV_AT_EPOCH   = 29711
BSTAR          = .10494E-2
MEAN_MOTION_DOT = .38127E-3
MEAN_MOTION_DDOT = 0

CCSDS_OMM_VERS = 2.0
CREATION_DATE  = 
ORIGINATOR     = 

OBJECT_NAME    = SL-3 R/B
OBJECT_ID      = 1981-046B
CENTER_NAME    = EARTH
REF_FRAME      = TEME
TIME_SYSTEM    = UTC
MEAN_ELEMENT_THEORY = SGP/SGP4

EPOCH          = 2025-11-13T02:44:59.088192
MEAN_MOTION    = 15.38734148
ECCENTRICITY   = .0020605
INCLINATION    = 81.2330
RA_OF_ASC_NODE = 69.3484
ARG_OF_PERICENTER = 66.0937
MEAN_ANOMALY   = 294.2460

EPHEMERIS_TYPE = 0
CLASSIFICATION_TYPE = U
NORAD_CAT_ID   = 12465
ELEMENT_SET_NO = 999
REV_AT_EPOCH   = 42048
BSTAR          = .59499E-3
MEAN_MOTION_DOT = .23005E-3
MEAN_MOTION_DDOT = 0

CCSDS_OMM_VERS = 2.0
CREATION_DATE  = 
ORIGINATOR     = 

OBJECT_NAME    = METEOR PRIRODA
OBJECT_ID      = 1981-065A
CENTER_NAME    = EARTH
REF_FRAME      = TEME
TIME_SYSTEM    = UTC
MEAN_ELEMENT_THEORY = SGP/SGP4

EPOCH          = 2025-11-13T03:20:36.282048
MEAN_MOTION    = 16.13488757
ECCENTRICITY   = .0004454
INCLINATION    = 97.4653
RA_OF_ASC_NODE = 21.8650
ARG_OF_PERICENTER = 263.3601
MEAN_ANOMALY   = 96.7178

EPHEMERIS_TYPE = 0
CLASSIFICATION_TYPE = U
NORAD_CAT_ID   = 12585
ELEMENT_SET_NO = 999
REV_AT_EPOCH   = 42605
BSTAR          = .96997E-3
MEAN_MOTION_DOT = .1120258E-1
MEAN_MOTION_DDOT = .83731E-3

CCSDS_OMM_VERS = 2.0
CREATION_DATE  = 
ORIGINATOR     = 

OBJECT_NAME    = SL-3 R/B
OBJECT_ID      = 1981-103B
CENTER_NAME    = EARTH
REF_FRAME      = TEME
TIME_SYSTEM    = UTC
MEAN_ELEMENT_THEORY = SGP/SGP4

EPOCH          = 2025-11-13T04:01:26.200704
MEAN_MOTION    = 15.19711262
ECCENTRICITY   = .0012554
INCLINATION    = 81.1610
RA_OF_ASC_NODE = 349.9766
ARG_OF_PERICENTER = 328.6727
MEAN_ANOMALY   = 31.3754

EPHEMERIS_TYPE = 0
CLASSIFICATION_TYPE = U
NORAD_CAT_ID   = 12904
ELEMENT_SET_NO = 999
REV_AT_EPOCH   = 95552
BSTAR          = .69848E-3
MEAN_MOTION_DOT = .14985E-3
MEAN_MOTION_DDOT = 0

CCSDS_OMM_VERS = 2.0
CREATION_DATE  = 
ORIGINATOR     = 

OBJECT_NAME    = SL-3 R/B
OBJECT_ID      = 1982-013B
CENTER_NAME    = EARTH
REF_FRAME      = TEME
TIME_SYSTEM    = UTC
MEAN_ELEMENT_THEORY = SGP/SGP4

EPOCH          = 2025-11-13T02:28:18.880320
MEAN_MOTION    = 15.20704041
ECCENTRICITY   = .0022016
INCLINATION    = 81.1730
RA_OF_ASC_NODE = 297.2932
ARG_OF_PERICENTER = 208.8330
MEAN_ANOMALY   = 151.1686

EPHEMERIS_TYPE = 0
CLASSIFICATION_TYPE = U
NORAD_CAT_ID   = 13068
ELEMENT_SET_NO = 999
REV_AT_EPOCH   = 38662
BSTAR          = .49627E-3
MEAN_MOTION_DOT = .11009E-3
MEAN_MOTION_DDOT = 0

